start=new Date('2023-06-02T00:00:00.000Z').valueOf();
sats=[{"OBJECT_ID":"2022-107BC","RA_OF_ASC_NODE":"129.4523","MEAN_MOTION":"15.08837134","EPOCH":"2023-06-01T05:38:03.166368","CENTER_NAME":"EARTH","GP_ID":"232962314","MEAN_MOTION_DOT":"0.00000511","SEMIMAJOR_AXIS":"6917.889","REV_AT_EPOCH":"4175","RCS_SIZE":"LARGE","DECAY_DATE":null,"TLE_LINE2":"2 53750  53.2153 129.4523 0001215  89.2145 270.8986 15.08837134 41752","NORAD_CAT_ID":"53750","ECCENTRICITY":"0.00012150","PERIAPSIS":"538.914","MEAN_ANOMALY":"270.8986","BSTAR":"0.00005022200000","REF_FRAME":"TEME","TLE_LINE1":"1 53750U 22107BC  23152.23475887  .00000511  00000-0  50222-4 0  9991","EPHEMERIS_TYPE":"0","OBJECT_TYPE":"PAYLOAD","MEAN_ELEMENT_THEORY":"SGP4","INCLINATION":"53.2153","LAUNCH_DATE":"2022-09-05","APOAPSIS":"540.595","SITE":"AFETR","COUNTRY_CODE":"US","OBJECT_NAME":"STARLINK-4612","CLASSIFICATION_TYPE":"U","ELEMENT_SET_NO":"999","FILE":"3922365","TIME_SYSTEM":"UTC","PERIOD":"95.438","ARG_OF_PERICENTER":"89.2145","MEAN_MOTION_DDOT":"0.0000000000000"},{"MEAN_ELEMENT_THEORY":"SGP4","OBJECT_TYPE":"PAYLOAD","TLE_LINE1":"1 53773U 22111A   23152.25496113  .00000100  00000-0  24344-4 0  9998","EPHEMERIS_TYPE":"0","REF_FRAME":"TEME","LAUNCH_DATE":"2022-09-11","INCLINATION":"53.2154","SITE":"AFETR","APOAPSIS":"540.559","COUNTRY_CODE":"US","CLASSIFICATION_TYPE":"U","OBJECT_NAME":"STARLINK-4718","ARG_OF_PERICENTER":"88.6239","PERIOD":"95.438","TIME_SYSTEM":"UTC","FILE":"3922643","ELEMENT_SET_NO":"999","MEAN_MOTION_DDOT":"0.0000000000000","OBJECT_ID":"2022-111A","CENTER_NAME":"EARTH","EPOCH":"2023-06-01T06:07:08.641632","MEAN_MOTION":"15.08838461","RA_OF_ASC_NODE":"149.0385","GP_ID":"232973195","REV_AT_EPOCH":"3990","SEMIMAJOR_AXIS":"6917.885","MEAN_MOTION_DOT":"0.00000100","RCS_SIZE":"LARGE","DECAY_DATE":null,"ECCENTRICITY":"0.00011690","NORAD_CAT_ID":"53773","TLE_LINE2":"2 53773  53.2154 149.0385 0001169  88.6239 271.4887 15.08838461 39902","MEAN_ANOMALY":"271.4887","PERIAPSIS":"538.941","BSTAR":"0.00002434400000"},{"MEAN_MOTION_DOT":"0.00000379","REV_AT_EPOCH":"3991","SEMIMAJOR_AXIS":"6917.886","GP_ID":"232973627","EPOCH":"2023-06-01T07:37:13.374624","MEAN_MOTION":"15.08838299","RA_OF_ASC_NODE":"148.7177","CENTER_NAME":"EARTH","OBJECT_ID":"2022-111B","BSTAR":"0.00004192500000","PERIAPSIS":"538.960","MEAN_ANOMALY":"274.6634","TLE_LINE2":"2 53774  53.2152 148.7177 0001143  85.4489 274.6634 15.08838299 39915","ECCENTRICITY":"0.00011430","NORAD_CAT_ID":"53774","RCS_SIZE":"LARGE","DECAY_DATE":null,"APOAPSIS":"540.541","SITE":"AFETR","LAUNCH_DATE":"2022-09-11","INCLINATION":"53.2152","REF_FRAME":"TEME","OBJECT_TYPE":"PAYLOAD","MEAN_ELEMENT_THEORY":"SGP4","TLE_LINE1":"1 53774U 22111B   23152.31751591  .00000379  00000-0  41925-4 0  9992","EPHEMERIS_TYPE":"0","MEAN_MOTION_DDOT":"0.0000000000000","TIME_SYSTEM":"UTC","ELEMENT_SET_NO":"999","FILE":"3922643","ARG_OF_PERICENTER":"85.4489","PERIOD":"95.438","CLASSIFICATION_TYPE":"U","COUNTRY_CODE":"US","OBJECT_NAME":"STARLINK-4719"},{"CENTER_NAME":"EARTH","RA_OF_ASC_NODE":"139.2304","EPOCH":"2023-06-01T06:45:35.074944","MEAN_MOTION":"15.08855398","OBJECT_ID":"2022-111C","SEMIMAJOR_AXIS":"6917.833","REV_AT_EPOCH":"4004","MEAN_MOTION_DOT":"0.00003008","GP_ID":"232973641","NORAD_CAT_ID":"53775","ECCENTRICITY":"0.00010940","TLE_LINE2":"2 53775  53.2153 139.2304 0001094  94.4092 265.7025 15.08855398 40049","DECAY_DATE":null,"RCS_SIZE":"LARGE","BSTAR":"0.00020690000000","MEAN_ANOMALY":"265.7025","PERIAPSIS":"538.942","TLE_LINE1":"1 53775U 22111C   23152.28165596  .00003008  00000-0  20690-3 0  9990","EPHEMERIS_TYPE":"0","OBJECT_TYPE":"PAYLOAD","MEAN_ELEMENT_THEORY":"SGP4","REF_FRAME":"TEME","SITE":"AFETR","APOAPSIS":"540.455","INCLINATION":"53.2153","LAUNCH_DATE":"2022-09-11","COUNTRY_CODE":"US","CLASSIFICATION_TYPE":"U","OBJECT_NAME":"STARLINK-4722","MEAN_MOTION_DDOT":"0.0000000000000","PERIOD":"95.437","ARG_OF_PERICENTER":"94.4092","ELEMENT_SET_NO":"999","FILE":"3922643","TIME_SYSTEM":"UTC"},{"APOAPSIS":"540.624","SITE":"AFETR","INCLINATION":"53.2150","LAUNCH_DATE":"2022-09-11","REF_FRAME":"TEME","EPHEMERIS_TYPE":"0","TLE_LINE1":"1 53776U 22111D   23152.27664775 -.00000060  00000-0  14324-4 0  9997","MEAN_ELEMENT_THEORY":"SGP4","OBJECT_TYPE":"PAYLOAD","MEAN_MOTION_DDOT":"0.0000000000000","ELEMENT_SET_NO":"999","FILE":"3922365","TIME_SYSTEM":"UTC","PERIOD":"95.438","ARG_OF_PERICENTER":"70.1165","CLASSIFICATION_TYPE":"U","COUNTRY_CODE":"US","OBJECT_NAME":"STARLINK-4708","MEAN_MOTION_DOT":"-0.00000060","SEMIMAJOR_AXIS":"6917.891","REV_AT_EPOCH":"4106","GP_ID":"232962566","RA_OF_ASC_NODE":"144.1842","EPOCH":"2023-06-01T06:38:22.365600","MEAN_MOTION":"15.08836576","CENTER_NAME":"EARTH","OBJECT_ID":"2022-111D","BSTAR":"0.00001432400000","PERIAPSIS":"538.888","MEAN_ANOMALY":"289.9962","TLE_LINE2":"2 53776  53.2150 144.1842 0001255  70.1165 289.9962 15.08836576 41068","NORAD_CAT_ID":"53776","ECCENTRICITY":"0.00012550","DECAY_DATE":null,"RCS_SIZE":"LARGE"},{"DECAY_DATE":null,"RCS_SIZE":"LARGE","ECCENTRICITY":"0.00010990","NORAD_CAT_ID":"53777","TLE_LINE2":"2 53777  53.2149 138.5890 0001099  84.8002 275.3116 15.08834595 40063","MEAN_ANOMALY":"275.3116","PERIAPSIS":"539.002","BSTAR":"0.00005353100000","OBJECT_ID":"2022-111E","CENTER_NAME":"EARTH","EPOCH":"2023-06-01T09:45:46.854720","MEAN_MOTION":"15.08834595","RA_OF_ASC_NODE":"138.5890","GP_ID":"232971775","REV_AT_EPOCH":"4006","SEMIMAJOR_AXIS":"6917.897","MEAN_MOTION_DOT":"0.00000564","COUNTRY_CODE":"US","CLASSIFICATION_TYPE":"U","OBJECT_NAME":"STARLINK-4664","ARG_OF_PERICENTER":"84.8002","PERIOD":"95.438","TIME_SYSTEM":"UTC","FILE":"3922571","ELEMENT_SET_NO":"999","MEAN_MOTION_DDOT":"0.0000000000000","MEAN_ELEMENT_THEORY":"SGP4","OBJECT_TYPE":"PAYLOAD","TLE_LINE1":"1 53777U 22111E   23152.40679230  .00000564  00000-0  53531-4 0  9996","EPHEMERIS_TYPE":"0","REF_FRAME":"TEME","LAUNCH_DATE":"2022-09-11","INCLINATION":"53.2149","SITE":"AFETR","APOAPSIS":"540.522"},{"PERIAPSIS":"539.122","MEAN_ANOMALY":"277.9950","BSTAR":"0.00004467400000","RCS_SIZE":"LARGE","DECAY_DATE":null,"TLE_LINE2":"2 53778  53.2155 143.6329 0000898  82.1144 277.9950 15.08840789 40795","NORAD_CAT_ID":"53778","ECCENTRICITY":"0.00008980","GP_ID":"232964063","MEAN_MOTION_DOT":"0.00000423","SEMIMAJOR_AXIS":"6917.878","REV_AT_EPOCH":"4079","OBJECT_ID":"2022-111F","RA_OF_ASC_NODE":"143.6329","MEAN_MOTION":"15.08840789","EPOCH":"2023-06-01T07:14:00.560832","CENTER_NAME":"EARTH","FILE":"3922365","ELEMENT_SET_NO":"999","TIME_SYSTEM":"UTC","PERIOD":"95.438","ARG_OF_PERICENTER":"82.1144","MEAN_MOTION_DDOT":"0.0000000000000","OBJECT_NAME":"STARLINK-4709","COUNTRY_CODE":"US","CLASSIFICATION_TYPE":"U","INCLINATION":"53.2155","LAUNCH_DATE":"2022-09-11","APOAPSIS":"540.364","SITE":"AFETR","REF_FRAME":"TEME","EPHEMERIS_TYPE":"0","TLE_LINE1":"1 53778U 22111F   23152.30139538  .00000423  00000-0  44674-4 0  9990","MEAN_ELEMENT_THEORY":"SGP4","OBJECT_TYPE":"PAYLOAD"},{"MEAN_ELEMENT_THEORY":"SGP4","OBJECT_TYPE":"PAYLOAD","TLE_LINE1":"1 53779U 22111G   23152.33686745  .00000184  00000-0  29664-4 0  9997","EPHEMERIS_TYPE":"0","REF_FRAME":"TEME","SITE":"AFETR","APOAPSIS":"540.610","LAUNCH_DATE":"2022-09-11","INCLINATION":"53.2161","OBJECT_NAME":"STARLINK-4706","COUNTRY_CODE":"US","CLASSIFICATION_TYPE":"U","MEAN_MOTION_DDOT":"0.0000000000000","ARG_OF_PERICENTER":"90.1401","PERIOD":"95.438","TIME_SYSTEM":"UTC","ELEMENT_SET_NO":"999","FILE":"3922365","CENTER_NAME":"EARTH","EPOCH":"2023-06-01T08:05:05.347680","MEAN_MOTION":"15.08835308","RA_OF_ASC_NODE":"138.8649","OBJECT_ID":"2022-111G","REV_AT_EPOCH":"4086","SEMIMAJOR_AXIS":"6917.895","MEAN_MOTION_DOT":"0.00000184","GP_ID":"232962316","ECCENTRICITY":"0.00012290","NORAD_CAT_ID":"53779","TLE_LINE2":"2 53779  53.2161 138.8649 0001229  90.1401 269.9732 15.08835308 40866","RCS_SIZE":"LARGE","DECAY_DATE":null,"BSTAR":"0.00002966400000","MEAN_ANOMALY":"269.9732","PERIAPSIS":"538.910"},{"GP_ID":"232973647","MEAN_MOTION_DOT":"0.00000748","REV_AT_EPOCH":"4004","SEMIMAJOR_AXIS":"6917.888","OBJECT_ID":"2022-111H","MEAN_MOTION":"15.08837463","EPOCH":"2023-06-01T06:40:18.720480","RA_OF_ASC_NODE":"139.2085","CENTER_NAME":"EARTH","PERIAPSIS":"539.022","MEAN_ANOMALY":"270.4406","BSTAR":"0.00006504600000","DECAY_DATE":null,"RCS_SIZE":"LARGE","TLE_LINE2":"2 53780  53.2159 139.2085 0001057  89.6707 270.4406 15.08837463 40044","ECCENTRICITY":"0.00010570","NORAD_CAT_ID":"53780","LAUNCH_DATE":"2022-09-11","INCLINATION":"53.2159","APOAPSIS":"540.484","SITE":"AFETR","REF_FRAME":"TEME","MEAN_ELEMENT_THEORY":"SGP4","OBJECT_TYPE":"PAYLOAD","TLE_LINE1":"1 53780U 22111H   23152.27799445  .00000748  00000-0  65046-4 0  9994","EPHEMERIS_TYPE":"0","TIME_SYSTEM":"UTC","FILE":"3922657","ELEMENT_SET_NO":"999","ARG_OF_PERICENTER":"89.6707","PERIOD":"95.438","MEAN_MOTION_DDOT":"0.0000000000000","COUNTRY_CODE":"US","OBJECT_NAME":"STARLINK-4678","CLASSIFICATION_TYPE":"U"},{"LAUNCH_DATE":"2022-09-11","INCLINATION":"53.2156","APOAPSIS":"540.563","SITE":"AFETR","REF_FRAME":"TEME","MEAN_ELEMENT_THEORY":"SGP4","OBJECT_TYPE":"PAYLOAD","EPHEMERIS_TYPE":"0","TLE_LINE1":"1 53781U 22111J   23152.39204526  .00000907  00000-0  75060-4 0  9993","TIME_SYSTEM":"UTC","FILE":"3922644","ELEMENT_SET_NO":"999","ARG_OF_PERICENTER":"80.9335","PERIOD":"95.438","MEAN_MOTION_DDOT":"0.0000000000000","CLASSIFICATION_TYPE":"U","COUNTRY_CODE":"US","OBJECT_NAME":"STARLINK-4462","GP_ID":"232973655","MEAN_MOTION_DOT":"0.00000907","REV_AT_EPOCH":"4006","SEMIMAJOR_AXIS":"6917.880","OBJECT_ID":"2022-111J","MEAN_MOTION":"15.08840281","EPOCH":"2023-06-01T09:24:32.710464","RA_OF_ASC_NODE":"138.4982","CENTER_NAME":"EARTH","PERIAPSIS":"538.926","MEAN_ANOMALY":"279.1791","BSTAR":"0.00007506000000","RCS_SIZE":"LARGE","DECAY_DATE":null,"TLE_LINE2":"2 53781  53.2156 138.4982 0001183  80.9335 279.1791 15.08840281 40067","ECCENTRICITY":"0.00011830","NORAD_CAT_ID":"53781"}];
